HULIANWANG DIGUI-65     
1 65171U 25174H   26066.11008797  .00000049  00000+0  79997-4 0  9999
2 65171  86.4841 286.3873 0001240  90.0157 270.1119 13.24422443 27277
HULIANWANG DIGUI-66     
1 65172U 25174J   26066.10255882  .00000049  00000+0  80325-4 0  9995
2 65172  86.4875 286.4566 0001279  91.7870 268.3411 13.24422025 27277
HULIANWANG DIGUI-67     
1 65173U 25174K   26066.11769993  .00000037  00000+0  52341-4 0  9994
2 65173  86.4887 286.4853 0001272  90.1620 269.9660 13.24421710 27249
HULIANWANG DIGUI-68     
1 65228U 25178A   26066.14022154  .00000034  00000+0  44938-4 0  9993
2 65228  86.4945  47.9559 0002021  79.1886 280.9475 13.24423884 26804
HULIANWANG DIGUI-69     
1 65229U 25178B   26066.13298587  .00000042  00000+0  63107-4 0  9996
2 65229  86.4965  47.9936 0001970  80.4741 279.6616 13.24417687 26809
HULIANWANG DIGUI-70     
1 65230U 25178C   26066.20093366  .00000055  00000+0  94941-4 0  9998
2 65230  86.4904  47.8384 0002064  78.8180 281.3186 13.24418689 26819
HULIANWANG DIGUI-71     
1 65231U 25178D   26066.19335270  .00000047  00000+0  75671-4 0  9990
2 65231  86.4962  47.9562 0002020  80.0408 280.0954 13.24419540 26819
HULIANWANG DIGUI-72     
1 65232U 25178E   26066.18575470  .00000032  00000+0  39664-4 0  9994
2 65232  86.4945  47.9165 0002023  81.0713 279.0650 13.24419973 26814
HULIANWANG DIGUI-73     
1 65305U 25187A   26066.11867631 -.00000092  00000+0  69229-4 0  9998
2 65305  50.0039 211.9408 0001033 145.0024 215.0916 13.29342604 26125
HULIANWANG DIGUI-74     
1 65306U 25187B   26066.17712982 -.00000093  00000+0  66428-4 0  9992
2 65306  50.0081 211.6510 0001035 146.1990 213.8948 13.29343044 26131
HULIANWANG DIGUI-75     
1 65307U 25187C   26066.16048633 -.00000085  00000+0  84201-4 0  9997
2 65307  50.0073 211.5525 0001030 144.4458 215.6483 13.29342061 26135
HULIANWANG DIGUI-76     
1 65308U 25187D   26066.14397240 -.00000086  00000+0  82640-4 0  9993
2 65308  49.9997 212.0045 0001013 142.4263 217.6680 13.29339434 26124
HULIANWANG DIGUI-77     
1 65309U 25187E   26066.13546958 -.00000095  00000+0  61744-4 0  9997
2 65309  50.0032 212.0147 0001062 143.5688 216.5257 13.29341312 26124
HULIANWANG DIGUI-78     
1 65310U 25187F   26066.16887958 -.00000087  00000+0  79757-4 0  9994
2 65310  50.0098 211.6343 0001019 145.4829 214.6110 13.29341744 26138
HULIANWANG DIGUI-79     
1 65311U 25187G   26066.15201641 -.00000090  00000+0  72705-4 0  9993
2 65311  50.0027 212.0926 0001022 143.3235 216.7707 13.29343189 26124
HULIANWANG DIGUI-80     
1 65312U 25187H   26066.12708595 -.00000079  00000+0  96287-4 0  9999
2 65312  50.0018 211.9495 0001041 142.8096 217.2848 13.29341461 26127
