[{"OBJECT_NAME":"HULIANWANG DIGUI-65","OBJECT_ID":"2025-174H","EPOCH":"2026-03-07T02:38:31.600608","MEAN_MOTION":13.24422443,"ECCENTRICITY":0.000124,"INCLINATION":86.4841,"RA_OF_ASC_NODE":286.3873,"ARG_OF_PERICENTER":90.0157,"MEAN_ANOMALY":270.1119,"EPHEMERIS_TYPE":0,"CLASSIFICATION_TYPE":"U","NORAD_CAT_ID":65171,"ELEMENT_SET_NO":999,"REV_AT_EPOCH":2727,"BSTAR":7.9997e-5,"MEAN_MOTION_DOT":4.9e-7,"MEAN_MOTION_DDOT":0},{"OBJECT_NAME":"HULIANWANG DIGUI-66","OBJECT_ID":"2025-174J","EPOCH":"2026-03-07T02:27:41.082048","MEAN_MOTION":13.24422025,"ECCENTRICITY":0.0001279,"INCLINATION":86.4875,"RA_OF_ASC_NODE":286.4566,"ARG_OF_PERICENTER":91.787,"MEAN_ANOMALY":268.3411,"EPHEMERIS_TYPE":0,"CLASSIFICATION_TYPE":"U","NORAD_CAT_ID":65172,"ELEMENT_SET_NO":999,"REV_AT_EPOCH":2727,"BSTAR":8.0325e-5,"MEAN_MOTION_DOT":4.9e-7,"MEAN_MOTION_DDOT":0},{"OBJECT_NAME":"HULIANWANG DIGUI-67","OBJECT_ID":"2025-174K","EPOCH":"2026-03-07T02:49:29.273952","MEAN_MOTION":13.2442171,"ECCENTRICITY":0.0001272,"INCLINATION":86.4887,"RA_OF_ASC_NODE":286.4853,"ARG_OF_PERICENTER":90.162,"MEAN_ANOMALY":269.966,"EPHEMERIS_TYPE":0,"CLASSIFICATION_TYPE":"U","NORAD_CAT_ID":65173,"ELEMENT_SET_NO":999,"REV_AT_EPOCH":2724,"BSTAR":5.2341e-5,"MEAN_MOTION_DOT":3.7e-7,"MEAN_MOTION_DDOT":0},{"OBJECT_NAME":"HULIANWANG DIGUI-68","OBJECT_ID":"2025-178A","EPOCH":"2026-03-07T03:21:55.141056","MEAN_MOTION":13.24423884,"ECCENTRICITY":0.0002021,"INCLINATION":86.4945,"RA_OF_ASC_NODE":47.9559,"ARG_OF_PERICENTER":79.1886,"MEAN_ANOMALY":280.9475,"EPHEMERIS_TYPE":0,"CLASSIFICATION_TYPE":"U","NORAD_CAT_ID":65228,"ELEMENT_SET_NO":999,"REV_AT_EPOCH":2680,"BSTAR":4.4938e-5,"MEAN_MOTION_DOT":3.4e-7,"MEAN_MOTION_DDOT":0},{"OBJECT_NAME":"HULIANWANG DIGUI-69","OBJECT_ID":"2025-178B","EPOCH":"2026-03-07T03:11:29.979168","MEAN_MOTION":13.24417687,"ECCENTRICITY":0.000197,"INCLINATION":86.4965,"RA_OF_ASC_NODE":47.9936,"ARG_OF_PERICENTER":80.4741,"MEAN_ANOMALY":279.6616,"EPHEMERIS_TYPE":0,"CLASSIFICATION_TYPE":"U","NORAD_CAT_ID":65229,"ELEMENT_SET_NO":999,"REV_AT_EPOCH":2680,"BSTAR":6.3107e-5,"MEAN_MOTION_DOT":4.2e-7,"MEAN_MOTION_DDOT":0},{"OBJECT_NAME":"HULIANWANG DIGUI-70","OBJECT_ID":"2025-178C","EPOCH":"2026-03-07T04:49:20.668224","MEAN_MOTION":13.24418689,"ECCENTRICITY":0.0002064,"INCLINATION":86.4904,"RA_OF_ASC_NODE":47.8384,"ARG_OF_PERICENTER":78.818,"MEAN_ANOMALY":281.3186,"EPHEMERIS_TYPE":0,"CLASSIFICATION_TYPE":"U","NORAD_CAT_ID":65230,"ELEMENT_SET_NO":999,"REV_AT_EPOCH":2681,"BSTAR":9.4941e-5,"MEAN_MOTION_DOT":5.5e-7,"MEAN_MOTION_DDOT":0},{"OBJECT_NAME":"HULIANWANG DIGUI-71","OBJECT_ID":"2025-178D","EPOCH":"2026-03-07T04:38:25.673280","MEAN_MOTION":13.2441954,"ECCENTRICITY":0.000202,"INCLINATION":86.4962,"RA_OF_ASC_NODE":47.9562,"ARG_OF_PERICENTER":80.0408,"MEAN_ANOMALY":280.0954,"EPHEMERIS_TYPE":0,"CLASSIFICATION_TYPE":"U","NORAD_CAT_ID":65231,"ELEMENT_SET_NO":999,"REV_AT_EPOCH":2681,"BSTAR":7.5671e-5,"MEAN_MOTION_DOT":4.7e-7,"MEAN_MOTION_DDOT":0},{"OBJECT_NAME":"HULIANWANG DIGUI-72","OBJECT_ID":"2025-178E","EPOCH":"2026-03-07T04:27:29.206080","MEAN_MOTION":13.24419973,"ECCENTRICITY":0.0002023,"INCLINATION":86.4945,"RA_OF_ASC_NODE":47.9165,"ARG_OF_PERICENTER":81.0713,"MEAN_ANOMALY":279.065,"EPHEMERIS_TYPE":0,"CLASSIFICATION_TYPE":"U","NORAD_CAT_ID":65232,"ELEMENT_SET_NO":999,"REV_AT_EPOCH":2681,"BSTAR":3.9664e-5,"MEAN_MOTION_DOT":3.2e-7,"MEAN_MOTION_DDOT":0},{"OBJECT_NAME":"HULIANWANG DIGUI-73","OBJECT_ID":"2025-187A","EPOCH":"2026-03-07T02:50:53.633184","MEAN_MOTION":13.29342604,"ECCENTRICITY":0.0001033,"INCLINATION":50.0039,"RA_OF_ASC_NODE":211.9408,"ARG_OF_PERICENTER":145.0024,"MEAN_ANOMALY":215.0916,"EPHEMERIS_TYPE":0,"CLASSIFICATION_TYPE":"U","NORAD_CAT_ID":65305,"ELEMENT_SET_NO":999,"REV_AT_EPOCH":2612,"BSTAR":6.9229e-5,"MEAN_MOTION_DOT":-9.2e-7,"MEAN_MOTION_DDOT":0},{"OBJECT_NAME":"HULIANWANG DIGUI-74","OBJECT_ID":"2025-187B","EPOCH":"2026-03-07T04:15:04.016448","MEAN_MOTION":13.29343044,"ECCENTRICITY":0.0001035,"INCLINATION":50.0081,"RA_OF_ASC_NODE":211.651,"ARG_OF_PERICENTER":146.199,"MEAN_ANOMALY":213.8948,"EPHEMERIS_TYPE":0,"CLASSIFICATION_TYPE":"U","NORAD_CAT_ID":65306,"ELEMENT_SET_NO":999,"REV_AT_EPOCH":2613,"BSTAR":6.6428e-5,"MEAN_MOTION_DOT":-9.3e-7,"MEAN_MOTION_DDOT":0},{"OBJECT_NAME":"HULIANWANG DIGUI-75","OBJECT_ID":"2025-187C","EPOCH":"2026-03-07T03:51:06.018912","MEAN_MOTION":13.29342061,"ECCENTRICITY":0.000103,"INCLINATION":50.0073,"RA_OF_ASC_NODE":211.5525,"ARG_OF_PERICENTER":144.4458,"MEAN_ANOMALY":215.6483,"EPHEMERIS_TYPE":0,"CLASSIFICATION_TYPE":"U","NORAD_CAT_ID":65307,"ELEMENT_SET_NO":999,"REV_AT_EPOCH":2613,"BSTAR":8.4201e-5,"MEAN_MOTION_DOT":-8.5e-7,"MEAN_MOTION_DDOT":0},{"OBJECT_NAME":"HULIANWANG DIGUI-76","OBJECT_ID":"2025-187D","EPOCH":"2026-03-07T03:27:19.215360","MEAN_MOTION":13.29339434,"ECCENTRICITY":0.0001013,"INCLINATION":49.9997,"RA_OF_ASC_NODE":212.0045,"ARG_OF_PERICENTER":142.4263,"MEAN_ANOMALY":217.668,"EPHEMERIS_TYPE":0,"CLASSIFICATION_TYPE":"U","NORAD_CAT_ID":65308,"ELEMENT_SET_NO":999,"REV_AT_EPOCH":2612,"BSTAR":8.264e-5,"MEAN_MOTION_DOT":-8.6e-7,"MEAN_MOTION_DDOT":0},{"OBJECT_NAME":"HULIANWANG DIGUI-77","OBJECT_ID":"2025-187E","EPOCH":"2026-03-07T03:15:04.571712","MEAN_MOTION":13.29341312,"ECCENTRICITY":0.0001062,"INCLINATION":50.0032,"RA_OF_ASC_NODE":212.0147,"ARG_OF_PERICENTER":143.5688,"MEAN_ANOMALY":216.5257,"EPHEMERIS_TYPE":0,"CLASSIFICATION_TYPE":"U","NORAD_CAT_ID":65309,"ELEMENT_SET_NO":999,"REV_AT_EPOCH":2612,"BSTAR":6.1744e-5,"MEAN_MOTION_DOT":-9.5e-7,"MEAN_MOTION_DDOT":0},{"OBJECT_NAME":"HULIANWANG DIGUI-78","OBJECT_ID":"2025-187F","EPOCH":"2026-03-07T04:03:11.195712","MEAN_MOTION":13.29341744,"ECCENTRICITY":0.0001019,"INCLINATION":50.0098,"RA_OF_ASC_NODE":211.6343,"ARG_OF_PERICENTER":145.4829,"MEAN_ANOMALY":214.611,"EPHEMERIS_TYPE":0,"CLASSIFICATION_TYPE":"U","NORAD_CAT_ID":65310,"ELEMENT_SET_NO":999,"REV_AT_EPOCH":2613,"BSTAR":7.9757e-5,"MEAN_MOTION_DOT":-8.7e-7,"MEAN_MOTION_DDOT":0},{"OBJECT_NAME":"HULIANWANG DIGUI-79","OBJECT_ID":"2025-187G","EPOCH":"2026-03-07T03:38:54.217824","MEAN_MOTION":13.29343189,"ECCENTRICITY":0.0001022,"INCLINATION":50.0027,"RA_OF_ASC_NODE":212.0926,"ARG_OF_PERICENTER":143.3235,"MEAN_ANOMALY":216.7707,"EPHEMERIS_TYPE":0,"CLASSIFICATION_TYPE":"U","NORAD_CAT_ID":65311,"ELEMENT_SET_NO":999,"REV_AT_EPOCH":2612,"BSTAR":7.2705e-5,"MEAN_MOTION_DOT":-9.0e-7,"MEAN_MOTION_DDOT":0},{"OBJECT_NAME":"HULIANWANG DIGUI-80","OBJECT_ID":"2025-187H","EPOCH":"2026-03-07T03:03:00.226080","MEAN_MOTION":13.29341461,"ECCENTRICITY":0.0001041,"INCLINATION":50.0018,"RA_OF_ASC_NODE":211.9495,"ARG_OF_PERICENTER":142.8096,"MEAN_ANOMALY":217.2848,"EPHEMERIS_TYPE":0,"CLASSIFICATION_TYPE":"U","NORAD_CAT_ID":65312,"ELEMENT_SET_NO":999,"REV_AT_EPOCH":2612,"BSTAR":9.6287e-5,"MEAN_MOTION_DOT":-7.9e-7,"MEAN_MOTION_DDOT":0}]
